[{"OBJECT_NAME":"COSMOS 2517 (GEO-IK 2)","OBJECT_ID":"2016-034A","EPOCH":"2026-03-09T22:46:47.568288","MEAN_MOTION":13.85906021,"ECCENTRICITY":9.478e-5,"INCLINATION":99.193,"RA_OF_ASC_NODE":79.5998,"ARG_OF_PERICENTER":99.0909,"MEAN_ANOMALY":261.0354,"EPHEMERIS_TYPE":0,"CLASSIFICATION_TYPE":"U","NORAD_CAT_ID":41579,"ELEMENT_SET_NO":999,"REV_AT_EPOCH":49388,"BSTAR":5.6006133e-5,"MEAN_MOTION_DOT":2.1e-7,"MEAN_MOTION_DDOT":0},{"OBJECT_NAME":"SL-24 R\/B","OBJECT_ID":"2009-041H","EPOCH":"2026-03-09T22:48:54.174528","MEAN_MOTION":13.74566489,"ECCENTRICITY":0.04281539,"INCLINATION":98.0859,"RA_OF_ASC_NODE":239.2126,"ARG_OF_PERICENTER":227.8253,"MEAN_ANOMALY":254.5095,"EPHEMERIS_TYPE":0,"CLASSIFICATION_TYPE":"U","NORAD_CAT_ID":35688,"ELEMENT_SET_NO":999,"REV_AT_EPOCH":83321,"BSTAR":6.2279755e-5,"MEAN_MOTION_DOT":7.7e-7,"MEAN_MOTION_DDOT":0}]
